[{"OBJECT_NAME":"STARLINK-30814","OBJECT_ID":"2023-166R","EPOCH":"2026-03-09T16:36:46.593216","MEAN_MOTION":15.30205128,"ECCENTRICITY":7.947e-5,"INCLINATION":53.1605,"RA_OF_ASC_NODE":219.3221,"ARG_OF_PERICENTER":79.5515,"MEAN_ANOMALY":280.5576,"EPHEMERIS_TYPE":0,"CLASSIFICATION_TYPE":"U","NORAD_CAT_ID":58165,"ELEMENT_SET_NO":999,"REV_AT_EPOCH":13318,"BSTAR":-6.6281142e-5,"MEAN_MOTION_DOT":-2.322e-5,"MEAN_MOTION_DDOT":0},{"OBJECT_NAME":"CZ-2C R\/B","OBJECT_ID":"2024-218A","EPOCH":"2026-03-09T22:16:31.791072","MEAN_MOTION":15.22960743,"ECCENTRICITY":0.00453409,"INCLINATION":97.5416,"RA_OF_ASC_NODE":83.973,"ARG_OF_PERICENTER":359.5317,"MEAN_ANOMALY":0.5869,"EPHEMERIS_TYPE":0,"CLASSIFICATION_TYPE":"U","NORAD_CAT_ID":62078,"ELEMENT_SET_NO":999,"REV_AT_EPOCH":7134,"BSTAR":0.00039378379,"MEAN_MOTION_DOT":9.445e-5,"MEAN_MOTION_DDOT":0}]
